start=new Date('2022-08-02T00:00:00.000Z').valueOf();
sats=[{"NORAD_CAT_ID":"52557","ECCENTRICITY":"0.00013050","PERIAPSIS":"538.831","REV_AT_EPOCH":"130","ELEMENT_SET_NO":"999","MEAN_MOTION_DDOT":"0.0000000000000","SITE":"AFWTR","GP_ID":"209392564","OBJECT_NAME":"STARLINK-3943","EPOCH":"2022-08-01T22:00:00.999936","APOAPSIS":"540.637","SEMIMAJOR_AXIS":"6917.869","TLE_LINE1":"1 52557U 22051AA  22213.91667824 -.00010844  00000-0 -66419-3 0  9995","FILE":"3527139","RCS_SIZE":"LARGE","BSTAR":"-0.00066419000000","REF_FRAME":"TEME","LAUNCH_DATE":"2022-05-13","DECAY_DATE":null,"MEAN_MOTION":"15.08843685","COUNTRY_CODE":"US","MEAN_ANOMALY":"246.1180","CLASSIFICATION_TYPE":"U","EPHEMERIS_TYPE":"0","RA_OF_ASC_NODE":"275.8388","OBJECT_TYPE":"PAYLOAD","PERIOD":"95.437","TIME_SYSTEM":"UTC","OBJECT_ID":"2022-051AA","MEAN_ELEMENT_THEORY":"SGP4","CENTER_NAME":"EARTH","INCLINATION":"53.2162","MEAN_MOTION_DOT":"-0.00010844","TLE_LINE2":"2 52557  53.2162 275.8388 0001305  70.5503 246.1180 15.08843685  1309","ARG_OF_PERICENTER":"70.5503"},{"APOAPSIS":"540.986","SEMIMAJOR_AXIS":"6917.920","TLE_LINE1":"1 52558U 22051AB  22213.91667824  .00005328  00000-0  35274-3 0  9990","FILE":"3527139","RCS_SIZE":"LARGE","BSTAR":"0.00035274000000","REV_AT_EPOCH":"130","NORAD_CAT_ID":"52558","ECCENTRICITY":"0.00017360","PERIAPSIS":"538.584","SITE":"AFWTR","GP_ID":"209392293","EPOCH":"2022-08-01T22:00:00.999936","OBJECT_NAME":"STARLINK-3954","MEAN_MOTION_DDOT":"0.0000000000000","ELEMENT_SET_NO":"999","INCLINATION":"53.2076","MEAN_MOTION_DOT":"0.00005328","OBJECT_ID":"2022-051AB","CENTER_NAME":"EARTH","MEAN_ELEMENT_THEORY":"SGP4","TLE_LINE2":"2 52558  53.2076 265.9058 0001736  46.5802 265.1777 15.08827080  1305","ARG_OF_PERICENTER":"46.5802","MEAN_ANOMALY":"265.1777","COUNTRY_CODE":"US","CLASSIFICATION_TYPE":"U","LAUNCH_DATE":"2022-05-13","REF_FRAME":"TEME","MEAN_MOTION":"15.08827080","DECAY_DATE":null,"RA_OF_ASC_NODE":"265.9058","OBJECT_TYPE":"PAYLOAD","PERIOD":"95.438","TIME_SYSTEM":"UTC","EPHEMERIS_TYPE":"0"},{"OBJECT_ID":"2022-051AC","MEAN_ELEMENT_THEORY":"SGP4","CENTER_NAME":"EARTH","INCLINATION":"53.2129","MEAN_MOTION_DOT":"0.00006116","TLE_LINE2":"2 52559  53.2129 265.8549 0001969  46.1523 300.4263 15.08837476  1306","ARG_OF_PERICENTER":"46.1523","LAUNCH_DATE":"2022-05-13","REF_FRAME":"TEME","DECAY_DATE":null,"MEAN_MOTION":"15.08837476","COUNTRY_CODE":"US","MEAN_ANOMALY":"300.4263","CLASSIFICATION_TYPE":"U","EPHEMERIS_TYPE":"0","OBJECT_TYPE":"PAYLOAD","RA_OF_ASC_NODE":"265.8549","PERIOD":"95.438","TIME_SYSTEM":"UTC","APOAPSIS":"541.115","SEMIMAJOR_AXIS":"6917.888","FILE":"3527139","TLE_LINE1":"1 52559U 22051AC  22213.91667824  .00006116  00000-0  40203-3 0  9995","RCS_SIZE":"LARGE","BSTAR":"0.00040203000000","NORAD_CAT_ID":"52559","ECCENTRICITY":"0.00019690","PERIAPSIS":"538.391","REV_AT_EPOCH":"130","ELEMENT_SET_NO":"999","MEAN_MOTION_DDOT":"0.0000000000000","SITE":"AFWTR","GP_ID":"209392054","OBJECT_NAME":"STARLINK-3953","EPOCH":"2022-08-01T22:00:00.999936"},{"TLE_LINE2":"2 52560  53.2129 265.8562 0002048  46.3104 285.4295 15.08847188  1307","ARG_OF_PERICENTER":"46.3104","OBJECT_ID":"2022-051AD","CENTER_NAME":"EARTH","MEAN_ELEMENT_THEORY":"SGP4","INCLINATION":"53.2129","MEAN_MOTION_DOT":"0.00007603","EPHEMERIS_TYPE":"0","RA_OF_ASC_NODE":"265.8562","OBJECT_TYPE":"PAYLOAD","TIME_SYSTEM":"UTC","PERIOD":"95.437","REF_FRAME":"TEME","LAUNCH_DATE":"2022-05-13","MEAN_MOTION":"15.08847188","DECAY_DATE":null,"COUNTRY_CODE":"US","MEAN_ANOMALY":"285.4295","CLASSIFICATION_TYPE":"U","TLE_LINE1":"1 52560U 22051AD  22213.91667824  .00007603  00000-0  49519-3 0  9998","FILE":"3527139","RCS_SIZE":"LARGE","BSTAR":"0.00049519000000","APOAPSIS":"541.140","SEMIMAJOR_AXIS":"6917.858","ELEMENT_SET_NO":"999","MEAN_MOTION_DDOT":"0.0000000000000","GP_ID":"209392804","SITE":"AFWTR","OBJECT_NAME":"STARLINK-3956","EPOCH":"2022-08-01T22:00:00.999936","NORAD_CAT_ID":"52560","ECCENTRICITY":"0.00020480","PERIAPSIS":"538.307","REV_AT_EPOCH":"130"},{"PERIAPSIS":"538.399","ECCENTRICITY":"0.00019290","NORAD_CAT_ID":"52561","REV_AT_EPOCH":"130","MEAN_MOTION_DDOT":"0.0000000000000","ELEMENT_SET_NO":"999","EPOCH":"2022-08-01T22:00:00.999936","OBJECT_NAME":"STARLINK-3955","SITE":"AFWTR","GP_ID":"209392178","SEMIMAJOR_AXIS":"6917.869","APOAPSIS":"541.068","BSTAR":"-0.00087869000000","RCS_SIZE":"LARGE","FILE":"3527139","TLE_LINE1":"1 52561U 22051AE  22213.91667824 -.00014247  00000-0 -87869-3 0  9993","MEAN_MOTION":"15.08843768","DECAY_DATE":null,"REF_FRAME":"TEME","LAUNCH_DATE":"2022-05-13","CLASSIFICATION_TYPE":"U","MEAN_ANOMALY":"30.1388","COUNTRY_CODE":"US","EPHEMERIS_TYPE":"0","PERIOD":"95.437","TIME_SYSTEM":"UTC","RA_OF_ASC_NODE":"280.8658","OBJECT_TYPE":"PAYLOAD","CENTER_NAME":"EARTH","MEAN_ELEMENT_THEORY":"SGP4","OBJECT_ID":"2022-051AE","MEAN_MOTION_DOT":"-0.00014247","INCLINATION":"53.2172","ARG_OF_PERICENTER":"39.0593","TLE_LINE2":"2 52561  53.2172 280.8658 0001929  39.0593  30.1388 15.08843768  1305"},{"REF_FRAME":"TEME","LAUNCH_DATE":"2022-05-13","MEAN_MOTION":"15.08827042","DECAY_DATE":null,"CLASSIFICATION_TYPE":"U","COUNTRY_CODE":"US","MEAN_ANOMALY":"319.3039","EPHEMERIS_TYPE":"0","TIME_SYSTEM":"UTC","PERIOD":"95.438","RA_OF_ASC_NODE":"265.8541","OBJECT_TYPE":"PAYLOAD","OBJECT_ID":"2022-051AF","CENTER_NAME":"EARTH","MEAN_ELEMENT_THEORY":"SGP4","MEAN_MOTION_DOT":"0.00006404","INCLINATION":"53.2122","ARG_OF_PERICENTER":"52.3467","TLE_LINE2":"2 52562  53.2122 265.8541 0001616  52.3467 319.3039 15.08827042  1308","PERIAPSIS":"538.667","NORAD_CAT_ID":"52562","ECCENTRICITY":"0.00016160","REV_AT_EPOCH":"130","ELEMENT_SET_NO":"999","MEAN_MOTION_DDOT":"0.0000000000000","EPOCH":"2022-08-01T22:00:00.999936","OBJECT_NAME":"STARLINK-3957","GP_ID":"209392679","SITE":"AFWTR","APOAPSIS":"540.903","SEMIMAJOR_AXIS":"6917.920","RCS_SIZE":"LARGE","BSTAR":"0.00042026000000","TLE_LINE1":"1 52562U 22051AF  22213.91667824  .00006404  00000-0  42026-3 0  9994","FILE":"3527139"},{"ARG_OF_PERICENTER":"42.7664","TLE_LINE2":"2 52563  53.2154 280.8645 0001974  42.7664   6.5329 15.08834267  1309","MEAN_ELEMENT_THEORY":"SGP4","CENTER_NAME":"EARTH","OBJECT_ID":"2022-051AG","MEAN_MOTION_DOT":"-0.00014850","INCLINATION":"53.2154","EPHEMERIS_TYPE":"0","TIME_SYSTEM":"UTC","PERIOD":"95.438","RA_OF_ASC_NODE":"280.8645","OBJECT_TYPE":"PAYLOAD","DECAY_DATE":null,"MEAN_MOTION":"15.08834267","LAUNCH_DATE":"2022-05-13","REF_FRAME":"TEME","CLASSIFICATION_TYPE":"U","COUNTRY_CODE":"US","MEAN_ANOMALY":"6.5329","BSTAR":"-0.00091697000000","RCS_SIZE":"LARGE","TLE_LINE1":"1 52563U 22051AG  22213.91667824 -.00014850  00000-0 -91697-3 0  9999","FILE":"3527139","SEMIMAJOR_AXIS":"6917.898","APOAPSIS":"541.129","MEAN_MOTION_DDOT":"0.0000000000000","ELEMENT_SET_NO":"999","OBJECT_NAME":"STARLINK-3942","EPOCH":"2022-08-01T22:00:00.999936","SITE":"AFWTR","GP_ID":"209392440","PERIAPSIS":"538.397","ECCENTRICITY":"0.00019740","NORAD_CAT_ID":"52563","REV_AT_EPOCH":"130"},{"SEMIMAJOR_AXIS":"6917.880","APOAPSIS":"541.064","FILE":"3527139","TLE_LINE1":"1 52564U 22051AH  22213.91667824 -.00014026  00000-0 -86486-3 0  9995","BSTAR":"-0.00086486000000","RCS_SIZE":"LARGE","REV_AT_EPOCH":"130","ECCENTRICITY":"0.00019060","NORAD_CAT_ID":"52564","PERIAPSIS":"538.427","SITE":"AFWTR","GP_ID":"209392930","EPOCH":"2022-08-01T22:00:00.999936","OBJECT_NAME":"STARLINK-3959","MEAN_MOTION_DDOT":"0.0000000000000","ELEMENT_SET_NO":"999","INCLINATION":"53.2156","MEAN_MOTION_DOT":"-0.00014026","CENTER_NAME":"EARTH","MEAN_ELEMENT_THEORY":"SGP4","OBJECT_ID":"2022-051AH","TLE_LINE2":"2 52564  53.2156 280.8647 0001906  45.1352  44.0994 15.08839987  1309","ARG_OF_PERICENTER":"45.1352","MEAN_ANOMALY":"44.0994","COUNTRY_CODE":"US","CLASSIFICATION_TYPE":"U","DECAY_DATE":null,"MEAN_MOTION":"15.08839987","LAUNCH_DATE":"2022-05-13","REF_FRAME":"TEME","OBJECT_TYPE":"PAYLOAD","RA_OF_ASC_NODE":"280.8647","PERIOD":"95.438","TIME_SYSTEM":"UTC","EPHEMERIS_TYPE":"0"},{"BSTAR":"0.00040652000000","RCS_SIZE":"LARGE","TLE_LINE1":"1 52565U 22051AJ  22213.91667824  .00006186  00000-0  40652-3 0  9997","FILE":"3527139","SEMIMAJOR_AXIS":"6917.900","APOAPSIS":"541.093","ELEMENT_SET_NO":"999","MEAN_MOTION_DDOT":"0.0000000000000","EPOCH":"2022-08-01T22:00:00.999936","OBJECT_NAME":"STARLINK-3911","GP_ID":"209392565","SITE":"AFWTR","PERIAPSIS":"538.438","ECCENTRICITY":"0.00019190","NORAD_CAT_ID":"52565","REV_AT_EPOCH":"130","ARG_OF_PERICENTER":"46.0461","TLE_LINE2":"2 52565  53.2130 265.8545 0001919  46.0461 305.7201 15.08833507  1307","MEAN_ELEMENT_THEORY":"SGP4","CENTER_NAME":"EARTH","OBJECT_ID":"2022-051AJ","MEAN_MOTION_DOT":"0.00006186","INCLINATION":"53.2130","EPHEMERIS_TYPE":"0","TIME_SYSTEM":"UTC","PERIOD":"95.438","OBJECT_TYPE":"PAYLOAD","RA_OF_ASC_NODE":"265.8545","MEAN_MOTION":"15.08833507","DECAY_DATE":null,"LAUNCH_DATE":"2022-05-13","REF_FRAME":"TEME","CLASSIFICATION_TYPE":"U","MEAN_ANOMALY":"305.7201","COUNTRY_CODE":"US"},{"PERIOD":"95.437","TIME_SYSTEM":"UTC","OBJECT_TYPE":"PAYLOAD","RA_OF_ASC_NODE":"280.8449","EPHEMERIS_TYPE":"0","CLASSIFICATION_TYPE":"U","COUNTRY_CODE":"US","MEAN_ANOMALY":"171.8073","REF_FRAME":"TEME","LAUNCH_DATE":"2022-05-13","DECAY_DATE":null,"MEAN_MOTION":"15.08842640","ARG_OF_PERICENTER":"37.4524","TLE_LINE2":"2 52566  53.2175 280.8449 0002093  37.4524 171.8073 15.08842640  1302","MEAN_MOTION_DOT":"-0.00016881","INCLINATION":"53.2175","OBJECT_ID":"2022-051AK","CENTER_NAME":"EARTH","MEAN_ELEMENT_THEORY":"SGP4","EPOCH":"2022-08-01T22:00:00.999936","OBJECT_NAME":"STARLINK-3938","GP_ID":"209392294","SITE":"AFWTR","ELEMENT_SET_NO":"999","MEAN_MOTION_DDOT":"0.0000000000000","REV_AT_EPOCH":"130","PERIAPSIS":"538.289","NORAD_CAT_ID":"52566","ECCENTRICITY":"0.00020930","RCS_SIZE":"LARGE","BSTAR":"-0.00104490000000","TLE_LINE1":"1 52566U 22051AK  22213.91667824 -.00016881  00000-0 -10449-2 0  9993","FILE":"3527139","APOAPSIS":"541.185","SEMIMAJOR_AXIS":"6917.872"}];
